start=new Date('2021-12-31T00:00:00.000Z').valueOf();
sats=[{"OBJECT_NAME":"STARLINK-3050","OBJECT_ID":"2021-082BC","RA_OF_ASC_NODE":"183.7422","ELEMENT_SET_NO":"999","REF_FRAME":"TEME","SITE":"AFWTR","TLE_LINE2":"2 49180  70.0000 183.7422 0003014 268.7769  91.3081 15.69741803 18196","OBJECT_TYPE":"PAYLOAD","EPHEMERIS_TYPE":"0","ECCENTRICITY":"0.00030140","MEAN_ELEMENT_THEORY":"SGP4","CLASSIFICATION_TYPE":"U","INCLINATION":"70.0000","SEMIMAJOR_AXIS":"6737.773","MEAN_ANOMALY":"91.3081","FILE":"3255240","LAUNCH_DATE":"2021-09-14","APOAPSIS":"361.669","BSTAR":"0.00008864300000","MEAN_MOTION_DOT":"0.00010379","PERIAPSIS":"357.607","REV_AT_EPOCH":"1819","RCS_SIZE":"LARGE","PERIOD":"91.735","COUNTRY_CODE":"US","CENTER_NAME":"EARTH","MEAN_MOTION":"15.69741803","DECAY_DATE":null,"TLE_LINE1":"1 49180U 21082BC  21364.93011293  .00010379  00000-0  88643-4 0  9992","TIME_SYSTEM":"UTC","EPOCH":"2021-12-30T22:19:21.757152","NORAD_CAT_ID":"49180","ARG_OF_PERICENTER":"268.7769","GP_ID":"192795869","MEAN_MOTION_DDOT":"0.0000000000000"},{"CLASSIFICATION_TYPE":"U","INCLINATION":"69.9959","SEMIMAJOR_AXIS":"6947.816","EPHEMERIS_TYPE":"0","ECCENTRICITY":"0.00038160","MEAN_ELEMENT_THEORY":"SGP4","SITE":"AFWTR","OBJECT_TYPE":"PAYLOAD","TLE_LINE2":"2 49181  69.9959 191.5216 0003816 273.1336  86.9387 14.99098904 18025","RA_OF_ASC_NODE":"191.5216","REF_FRAME":"TEME","ELEMENT_SET_NO":"999","OBJECT_NAME":"STARLINK-3059","OBJECT_ID":"2021-082BD","EPOCH":"2021-12-30T22:18:18.473472","NORAD_CAT_ID":"49181","ARG_OF_PERICENTER":"273.1336","GP_ID":"192795620","MEAN_MOTION_DDOT":"0.0000000000000","DECAY_DATE":null,"TLE_LINE1":"1 49181U 21082BD  21364.92938048 -.00132834  00000-0 -11112-1 0  9995","TIME_SYSTEM":"UTC","COUNTRY_CODE":"US","PERIOD":"96.058","CENTER_NAME":"EARTH","MEAN_MOTION":"14.99098904","BSTAR":"-0.01111200000000","PERIAPSIS":"567.030","MEAN_MOTION_DOT":"-0.00132834","REV_AT_EPOCH":"1802","RCS_SIZE":"LARGE","MEAN_ANOMALY":"86.9387","FILE":"3255240","LAUNCH_DATE":"2021-09-14","APOAPSIS":"572.332"},{"MEAN_MOTION_DOT":"-0.00283430","PERIAPSIS":"422.952","BSTAR":"-0.00559850000000","RCS_SIZE":"LARGE","REV_AT_EPOCH":"763","FILE":"3255240","MEAN_ANOMALY":"321.3031","APOAPSIS":"424.469","LAUNCH_DATE":"2021-11-13","NORAD_CAT_ID":"49408","EPOCH":"2021-12-30T21:45:53.495424","MEAN_MOTION_DDOT":"0.0000000000000","GP_ID":"192797146","ARG_OF_PERICENTER":"38.8058","DECAY_DATE":null,"TIME_SYSTEM":"UTC","TLE_LINE1":"1 49408U 21104A   21364.90686916 -.00283430  00000-0 -55985-2 0  9990","MEAN_MOTION":"15.47613842","CENTER_NAME":"EARTH","COUNTRY_CODE":"US","PERIOD":"93.046","TLE_LINE2":"2 49408  53.2165 260.3424 0001115  38.8058 321.3031 15.47613842  7630","OBJECT_TYPE":"PAYLOAD","SITE":"AFETR","RA_OF_ASC_NODE":"260.3424","ELEMENT_SET_NO":"999","REF_FRAME":"TEME","OBJECT_NAME":"STARLINK-3151","OBJECT_ID":"2021-104A","CLASSIFICATION_TYPE":"U","SEMIMAJOR_AXIS":"6801.846","INCLINATION":"53.2165","EPHEMERIS_TYPE":"0","MEAN_ELEMENT_THEORY":"SGP4","ECCENTRICITY":"0.00011150"},{"SITE":"AFETR","TLE_LINE2":"2 49409  53.2175 260.4058 0002335  89.9521 270.1756 15.49218424  7637","OBJECT_TYPE":"PAYLOAD","OBJECT_NAME":"STARLINK-3075","OBJECT_ID":"2021-104B","RA_OF_ASC_NODE":"260.4058","ELEMENT_SET_NO":"999","REF_FRAME":"TEME","CLASSIFICATION_TYPE":"U","INCLINATION":"53.2175","SEMIMAJOR_AXIS":"6797.148","EPHEMERIS_TYPE":"0","ECCENTRICITY":"0.00023350","MEAN_ELEMENT_THEORY":"SGP4","MEAN_ANOMALY":"270.1756","FILE":"3255240","LAUNCH_DATE":"2021-11-13","APOAPSIS":"420.600","BSTAR":"-0.00606450000000","PERIAPSIS":"417.426","MEAN_MOTION_DOT":"-0.00323179","REV_AT_EPOCH":"763","RCS_SIZE":"LARGE","EPOCH":"2021-12-30T21:17:46.434336","NORAD_CAT_ID":"49409","ARG_OF_PERICENTER":"89.9521","MEAN_MOTION_DDOT":"0.0000000000000","GP_ID":"192795895","PERIOD":"92.950","COUNTRY_CODE":"US","CENTER_NAME":"EARTH","MEAN_MOTION":"15.49218424","DECAY_DATE":null,"TLE_LINE1":"1 49409U 21104B   21364.88734299 -.00323179  00000-0 -60645-2 0  9990","TIME_SYSTEM":"UTC"},{"REF_FRAME":"TEME","ELEMENT_SET_NO":"999","RA_OF_ASC_NODE":"260.3327","OBJECT_ID":"2021-104C","OBJECT_NAME":"STARLINK-3147","TLE_LINE2":"2 49410  53.2146 260.3327 0001419  66.9983 293.1175 15.47304126  7637","OBJECT_TYPE":"PAYLOAD","SITE":"AFETR","MEAN_ELEMENT_THEORY":"SGP4","ECCENTRICITY":"0.00014190","EPHEMERIS_TYPE":"0","SEMIMAJOR_AXIS":"6802.753","INCLINATION":"53.2146","CLASSIFICATION_TYPE":"U","RCS_SIZE":"LARGE","REV_AT_EPOCH":"763","MEAN_MOTION_DOT":"-0.00320083","PERIAPSIS":"423.653","BSTAR":"-0.00642180000000","APOAPSIS":"425.584","LAUNCH_DATE":"2021-11-13","FILE":"3255240","MEAN_ANOMALY":"293.1175","TLE_LINE1":"1 49410U 21104C   21364.91003646 -.00320083  00000-0 -64218-2 0  9992","TIME_SYSTEM":"UTC","DECAY_DATE":null,"MEAN_MOTION":"15.47304126","COUNTRY_CODE":"US","CENTER_NAME":"EARTH","PERIOD":"93.065","MEAN_MOTION_DDOT":"0.0000000000000","GP_ID":"192795646","ARG_OF_PERICENTER":"66.9983","NORAD_CAT_ID":"49410","EPOCH":"2021-12-30T21:50:27.150144"},{"APOAPSIS":"354.566","LAUNCH_DATE":"2021-11-13","FILE":"3255240","MEAN_ANOMALY":"51.0326","RCS_SIZE":"LARGE","REV_AT_EPOCH":"766","MEAN_MOTION_DOT":"0.00026447","PERIAPSIS":"344.925","BSTAR":"0.00019200000000","MEAN_MOTION":"15.73205149","PERIOD":"91.533","COUNTRY_CODE":"US","CENTER_NAME":"EARTH","TLE_LINE1":"1 49411U 21104D   21364.92901059  .00026447  00000-0  19200-3 0  9996","TIME_SYSTEM":"UTC","DECAY_DATE":null,"MEAN_MOTION_DDOT":"0.0000000000000","GP_ID":"192796896","ARG_OF_PERICENTER":"309.0055","NORAD_CAT_ID":"49411","EPOCH":"2021-12-30T22:17:46.514976","OBJECT_ID":"2021-104D","OBJECT_NAME":"STARLINK-3162","REF_FRAME":"TEME","ELEMENT_SET_NO":"999","RA_OF_ASC_NODE":"258.4033","OBJECT_TYPE":"PAYLOAD","TLE_LINE2":"2 49411  53.2169 258.4033 0007165 309.0055  51.0326 15.73205149  7666","SITE":"AFETR","MEAN_ELEMENT_THEORY":"SGP4","ECCENTRICITY":"0.00071650","EPHEMERIS_TYPE":"0","SEMIMAJOR_AXIS":"6727.880","INCLINATION":"53.2169","CLASSIFICATION_TYPE":"U"},{"RA_OF_ASC_NODE":"260.4054","REF_FRAME":"TEME","ELEMENT_SET_NO":"999","OBJECT_NAME":"STARLINK-3144","OBJECT_ID":"2021-104E","OBJECT_TYPE":"PAYLOAD","TLE_LINE2":"2 49412  53.2166 260.4054 0001911  63.7789 296.3418 15.49370916  7632","SITE":"AFETR","EPHEMERIS_TYPE":"0","MEAN_ELEMENT_THEORY":"SGP4","ECCENTRICITY":"0.00019110","CLASSIFICATION_TYPE":"U","SEMIMAJOR_AXIS":"6796.702","INCLINATION":"53.2166","MEAN_MOTION_DOT":"-0.00299195","PERIAPSIS":"417.268","BSTAR":"-0.00556720000000","RCS_SIZE":"LARGE","REV_AT_EPOCH":"763","FILE":"3255240","MEAN_ANOMALY":"296.3418","APOAPSIS":"419.866","LAUNCH_DATE":"2021-11-13","DECAY_DATE":null,"TIME_SYSTEM":"UTC","TLE_LINE1":"1 49412U 21104E   21364.88585327 -.00299195  00000-0 -55672-2 0  9994","MEAN_MOTION":"15.49370916","CENTER_NAME":"EARTH","COUNTRY_CODE":"US","PERIOD":"92.941","NORAD_CAT_ID":"49412","EPOCH":"2021-12-30T21:15:37.722528","GP_ID":"192796647","MEAN_MOTION_DDOT":"0.0000000000000","ARG_OF_PERICENTER":"63.7789"},{"SITE":"AFETR","TLE_LINE2":"2 49413  53.2176 258.4041 0001294  44.9944 315.1181 15.73208260  7664","OBJECT_TYPE":"PAYLOAD","OBJECT_NAME":"STARLINK-3157","OBJECT_ID":"2021-104F","RA_OF_ASC_NODE":"258.4041","REF_FRAME":"TEME","ELEMENT_SET_NO":"999","CLASSIFICATION_TYPE":"U","INCLINATION":"53.2176","SEMIMAJOR_AXIS":"6727.872","EPHEMERIS_TYPE":"0","ECCENTRICITY":"0.00012940","MEAN_ELEMENT_THEORY":"SGP4","MEAN_ANOMALY":"315.1181","FILE":"3255240","LAUNCH_DATE":"2021-11-13","APOAPSIS":"350.607","BSTAR":"0.00014964000000","MEAN_MOTION_DOT":"0.00020439","PERIAPSIS":"348.866","REV_AT_EPOCH":"766","RCS_SIZE":"LARGE","EPOCH":"2021-12-30T22:17:32.846496","NORAD_CAT_ID":"49413","ARG_OF_PERICENTER":"44.9944","MEAN_MOTION_DDOT":"0.0000000000000","GP_ID":"192795396","COUNTRY_CODE":"US","PERIOD":"91.533","CENTER_NAME":"EARTH","MEAN_MOTION":"15.73208260","DECAY_DATE":null,"TIME_SYSTEM":"UTC","TLE_LINE1":"1 49413U 21104F   21364.92885239  .00020439  00000-0  14964-3 0  9996"},{"FILE":"3255240","MEAN_ANOMALY":"313.7810","APOAPSIS":"425.244","LAUNCH_DATE":"2021-11-13","MEAN_MOTION_DOT":"-0.00290622","PERIAPSIS":"423.057","BSTAR":"-0.00577580000000","RCS_SIZE":"LARGE","REV_AT_EPOCH":"763","MEAN_MOTION":"15.47463714","COUNTRY_CODE":"US","CENTER_NAME":"EARTH","PERIOD":"93.055","DECAY_DATE":null,"TLE_LINE1":"1 49414U 21104G   21364.90857009 -.00290622  00000-0 -57758-2 0  9991","TIME_SYSTEM":"UTC","NORAD_CAT_ID":"49414","EPOCH":"2021-12-30T21:48:20.455776","MEAN_MOTION_DDOT":"0.0000000000000","GP_ID":"192796145","ARG_OF_PERICENTER":"46.3332","OBJECT_NAME":"STARLINK-3146","OBJECT_ID":"2021-104G","RA_OF_ASC_NODE":"260.3340","ELEMENT_SET_NO":"999","REF_FRAME":"TEME","TLE_LINE2":"2 49414  53.2157 260.3340 0001607  46.3332 313.7810 15.47463714  7631","OBJECT_TYPE":"PAYLOAD","SITE":"AFETR","EPHEMERIS_TYPE":"0","MEAN_ELEMENT_THEORY":"SGP4","ECCENTRICITY":"0.00016070","CLASSIFICATION_TYPE":"U","SEMIMAJOR_AXIS":"6802.286","INCLINATION":"53.2157"},{"REF_FRAME":"TEME","ELEMENT_SET_NO":"999","RA_OF_ASC_NODE":"258.3993","OBJECT_ID":"2021-104H","OBJECT_NAME":"STARLINK-3159","SITE":"AFETR","OBJECT_TYPE":"PAYLOAD","TLE_LINE2":"2 49415  53.2167 258.3993 0001191  47.1585 312.9535 15.73192295  7650","ECCENTRICITY":"0.00011910","MEAN_ELEMENT_THEORY":"SGP4","EPHEMERIS_TYPE":"0","INCLINATION":"53.2167","SEMIMAJOR_AXIS":"6727.917","CLASSIFICATION_TYPE":"U","REV_AT_EPOCH":"765","RCS_SIZE":"LARGE","BSTAR":"0.00012541000000","MEAN_MOTION_DOT":"0.00017010","PERIAPSIS":"348.981","LAUNCH_DATE":"2021-11-13","APOAPSIS":"350.583","MEAN_ANOMALY":"312.9535","FILE":"3255240","TLE_LINE1":"1 49415U 21104H   21364.92868990  .00017010  00000-0  12541-3 0  9993","TIME_SYSTEM":"UTC","DECAY_DATE":null,"PERIOD":"91.534","COUNTRY_CODE":"US","CENTER_NAME":"EARTH","MEAN_MOTION":"15.73192295","ARG_OF_PERICENTER":"47.1585","MEAN_MOTION_DDOT":"0.0000000000000","GP_ID":"192796397","EPOCH":"2021-12-30T22:17:18.807360","NORAD_CAT_ID":"49415"}];
